[{"OBJECT_NAME":"STARLINK-31667","OBJECT_ID":"2024-080J","EPOCH":"2025-12-13T21:01:20.307936","MEAN_MOTION":15.2758906,"ECCENTRICITY":8.529e-5,"INCLINATION":43.0035,"RA_OF_ASC_NODE":158.6363,"ARG_OF_PERICENTER":236.7315,"MEAN_ANOMALY":123.3455,"EPHEMERIS_TYPE":0,"CLASSIFICATION_TYPE":"U","NORAD_CAT_ID":59609,"ELEMENT_SET_NO":999,"REV_AT_EPOCH":9145,"BSTAR":-8.8280997e-5,"MEAN_MOTION_DOT":-2.691e-5,"MEAN_MOTION_DDOT":0},{"OBJECT_NAME":"STARLINK-31729","OBJECT_ID":"2024-080K","EPOCH":"2025-12-13T11:16:16.127040","MEAN_MOTION":15.2756672,"ECCENTRICITY":0.00015253,"INCLINATION":43.0022,"RA_OF_ASC_NODE":161.6142,"ARG_OF_PERICENTER":263.0421,"MEAN_ANOMALY":97.0258,"EPHEMERIS_TYPE":0,"CLASSIFICATION_TYPE":"U","NORAD_CAT_ID":59610,"ELEMENT_SET_NO":999,"REV_AT_EPOCH":9138,"BSTAR":-4.460418e-5,"MEAN_MOTION_DOT":-1.489e-5,"MEAN_MOTION_DDOT":0},{"OBJECT_NAME":"STARLINK-31448","OBJECT_ID":"2024-080L","EPOCH":"2025-12-13T18:44:50.440704","MEAN_MOTION":15.27581551,"ECCENTRICITY":0.00012986,"INCLINATION":42.9971,"RA_OF_ASC_NODE":159.6502,"ARG_OF_PERICENTER":268.1138,"MEAN_ANOMALY":91.9565,"EPHEMERIS_TYPE":0,"CLASSIFICATION_TYPE":"U","NORAD_CAT_ID":59611,"ELEMENT_SET_NO":999,"REV_AT_EPOCH":9143,"BSTAR":0.00014723574,"MEAN_MOTION_DOT":3.792e-5,"MEAN_MOTION_DDOT":0},{"OBJECT_NAME":"STARLINK-31748","OBJECT_ID":"2024-080M","EPOCH":"2025-12-13T19:51:13.795200","MEAN_MOTION":15.27598842,"ECCENTRICITY":0.000136,"INCLINATION":43.0002,"RA_OF_ASC_NODE":159.1338,"ARG_OF_PERICENTER":248.0031,"MEAN_ANOMALY":112.0676,"EPHEMERIS_TYPE":0,"CLASSIFICATION_TYPE":"U","NORAD_CAT_ID":59612,"ELEMENT_SET_NO":999,"REV_AT_EPOCH":9261,"BSTAR":-4.0461285e-5,"MEAN_MOTION_DOT":-1.376e-5,"MEAN_MOTION_DDOT":0},{"OBJECT_NAME":"STARLINK-31746","OBJECT_ID":"2024-080N","EPOCH":"2025-12-14T05:00:13.204224","MEAN_MOTION":15.27549803,"ECCENTRICITY":0.00021673,"INCLINATION":43.0044,"RA_OF_ASC_NODE":164.5947,"ARG_OF_PERICENTER":277.3349,"MEAN_ANOMALY":82.7256,"EPHEMERIS_TYPE":0,"CLASSIFICATION_TYPE":"U","NORAD_CAT_ID":59613,"ELEMENT_SET_NO":999,"REV_AT_EPOCH":9141,"BSTAR":4.5800235e-5,"MEAN_MOTION_DOT":9.97e-6,"MEAN_MOTION_DDOT":0},{"OBJECT_NAME":"STARLINK-31762","OBJECT_ID":"2024-080P","EPOCH":"2025-12-14T04:20:10.929984","MEAN_MOTION":15.27574029,"ECCENTRICITY":0.00013059,"INCLINATION":42.9985,"RA_OF_ASC_NODE":160.9477,"ARG_OF_PERICENTER":267.2731,"MEAN_ANOMALY":92.7971,"EPHEMERIS_TYPE":0,"CLASSIFICATION_TYPE":"U","NORAD_CAT_ID":59614,"ELEMENT_SET_NO":999,"REV_AT_EPOCH":9145,"BSTAR":5.6228496e-5,"MEAN_MOTION_DOT":1.285e-5,"MEAN_MOTION_DDOT":0},{"OBJECT_NAME":"STARLINK-31761","OBJECT_ID":"2024-080Q","EPOCH":"2025-12-14T05:01:30.880416","MEAN_MOTION":15.27890727,"ECCENTRICITY":0.0001633,"INCLINATION":43.0017,"RA_OF_ASC_NODE":161.1143,"ARG_OF_PERICENTER":266.4969,"MEAN_ANOMALY":93.5696,"EPHEMERIS_TYPE":0,"CLASSIFICATION_TYPE":"U","NORAD_CAT_ID":59615,"ELEMENT_SET_NO":999,"REV_AT_EPOCH":9145,"BSTAR":0.0005465727,"MEAN_MOTION_DOT":0.00014952,"MEAN_MOTION_DDOT":0},{"OBJECT_NAME":"STARLINK-31768","OBJECT_ID":"2024-080R","EPOCH":"2025-12-13T21:59:53.989440","MEAN_MOTION":15.27474051,"ECCENTRICITY":5.411e-5,"INCLINATION":42.9988,"RA_OF_ASC_NODE":162.4059,"ARG_OF_PERICENTER":196.1521,"MEAN_ANOMALY":163.9313,"EPHEMERIS_TYPE":0,"CLASSIFICATION_TYPE":"U","NORAD_CAT_ID":59616,"ELEMENT_SET_NO":999,"REV_AT_EPOCH":9141,"BSTAR":0.00091957916,"MEAN_MOTION_DOT":0.00025047,"MEAN_MOTION_DDOT":0},{"OBJECT_NAME":"STARLINK-31769","OBJECT_ID":"2024-080S","EPOCH":"2025-12-14T04:42:23.339808","MEAN_MOTION":15.27568883,"ECCENTRICITY":0.00011905,"INCLINATION":43.0056,"RA_OF_ASC_NODE":161.0656,"ARG_OF_PERICENTER":266.3517,"MEAN_ANOMALY":93.7198,"EPHEMERIS_TYPE":0,"CLASSIFICATION_TYPE":"U","NORAD_CAT_ID":59617,"ELEMENT_SET_NO":999,"REV_AT_EPOCH":9145,"BSTAR":0.00010397654,"MEAN_MOTION_DOT":2.599e-5,"MEAN_MOTION_DDOT":0},{"OBJECT_NAME":"STARLINK-31784","OBJECT_ID":"2024-080T","EPOCH":"2025-12-14T04:39:50.899104","MEAN_MOTION":15.27563289,"ECCENTRICITY":4.727e-5,"INCLINATION":42.9983,"RA_OF_ASC_NODE":164.5085,"ARG_OF_PERICENTER":241.8539,"MEAN_ANOMALY":118.2265,"EPHEMERIS_TYPE":0,"CLASSIFICATION_TYPE":"U","NORAD_CAT_ID":59618,"ELEMENT_SET_NO":999,"REV_AT_EPOCH":9141,"BSTAR":0.00022208258,"MEAN_MOTION_DOT":5.851e-5,"MEAN_MOTION_DDOT":0},{"OBJECT_NAME":"STARLINK-31777","OBJECT_ID":"2024-080U","EPOCH":"2025-12-14T04:45:23.172768","MEAN_MOTION":15.27577463,"ECCENTRICITY":0.00016458,"INCLINATION":43.0006,"RA_OF_ASC_NODE":164.5364,"ARG_OF_PERICENTER":270.6095,"MEAN_ANOMALY":89.4568,"EPHEMERIS_TYPE":0,"CLASSIFICATION_TYPE":"U","NORAD_CAT_ID":59619,"ELEMENT_SET_NO":999,"REV_AT_EPOCH":9141,"BSTAR":8.0421141e-5,"MEAN_MOTION_DOT":1.951e-5,"MEAN_MOTION_DDOT":0},{"OBJECT_NAME":"STARLINK-31771","OBJECT_ID":"2024-080V","EPOCH":"2025-12-14T08:00:03.000384","MEAN_MOTION":15.97056753,"ECCENTRICITY":0.00246542,"INCLINATION":42.9763,"RA_OF_ASC_NODE":134.8388,"ARG_OF_PERICENTER":323.8541,"MEAN_ANOMALY":30.8421,"EPHEMERIS_TYPE":0,"CLASSIFICATION_TYPE":"U","NORAD_CAT_ID":59620,"ELEMENT_SET_NO":999,"REV_AT_EPOCH":590,"BSTAR":0.0012191396,"MEAN_MOTION_DOT":0.00566251,"MEAN_MOTION_DDOT":0.00014215888},{"OBJECT_NAME":"STARLINK-31758","OBJECT_ID":"2024-080W","EPOCH":"2025-12-13T19:34:35.769792","MEAN_MOTION":15.2759333,"ECCENTRICITY":0.00015381,"INCLINATION":43.0019,"RA_OF_ASC_NODE":159.0451,"ARG_OF_PERICENTER":263.5456,"MEAN_ANOMALY":96.522,"EPHEMERIS_TYPE":0,"CLASSIFICATION_TYPE":"U","NORAD_CAT_ID":59621,"ELEMENT_SET_NO":999,"REV_AT_EPOCH":9144,"BSTAR":-0.0001302697,"MEAN_MOTION_DOT":-3.847e-5,"MEAN_MOTION_DDOT":0},{"OBJECT_NAME":"STARLINK-31774","OBJECT_ID":"2024-080X","EPOCH":"2025-12-14T04:19:02.665344","MEAN_MOTION":15.27565925,"ECCENTRICITY":8.401e-5,"INCLINATION":42.9987,"RA_OF_ASC_NODE":157.4812,"ARG_OF_PERICENTER":270.3568,"MEAN_ANOMALY":89.7187,"EPHEMERIS_TYPE":0,"CLASSIFICATION_TYPE":"U","NORAD_CAT_ID":59622,"ELEMENT_SET_NO":999,"REV_AT_EPOCH":9149,"BSTAR":1.9033763e-5,"MEAN_MOTION_DOT":2.62e-6,"MEAN_MOTION_DDOT":0},{"OBJECT_NAME":"STARLINK-31763","OBJECT_ID":"2024-080Y","EPOCH":"2025-12-13T19:23:00.385440","MEAN_MOTION":15.27562809,"ECCENTRICITY":0.00010348,"INCLINATION":43.003,"RA_OF_ASC_NODE":163.3064,"ARG_OF_PERICENTER":249.591,"MEAN_ANOMALY":110.4831,"EPHEMERIS_TYPE":0,"CLASSIFICATION_TYPE":"U","NORAD_CAT_ID":59623,"ELEMENT_SET_NO":999,"REV_AT_EPOCH":9139,"BSTAR":0.00021985572,"MEAN_MOTION_DOT":5.79e-5,"MEAN_MOTION_DDOT":0},{"OBJECT_NAME":"STARLINK-31749","OBJECT_ID":"2024-082A","EPOCH":"2025-12-14T03:35:57.895296","MEAN_MOTION":15.27613439,"ECCENTRICITY":8.159e-5,"INCLINATION":42.9978,"RA_OF_ASC_NODE":262.5634,"ARG_OF_PERICENTER":346.594,"MEAN_ANOMALY":13.489,"EPHEMERIS_TYPE":0,"CLASSIFICATION_TYPE":"U","NORAD_CAT_ID":59631,"ELEMENT_SET_NO":999,"REV_AT_EPOCH":9193,"BSTAR":-7.3289242e-5,"MEAN_MOTION_DOT":-2.28e-5,"MEAN_MOTION_DDOT":0}]
