STARLINK-31667          
1 59609U 24080J   25347.87592949 -.00002691  00000+0 -88281-4 0  9997
2 59609  43.0035 158.6363 0000852 236.7315 123.3455 15.27589060 91455
STARLINK-31729          
1 59610U 24080K   25347.46963110 -.00001489  00000+0 -44604-4 0  9991
2 59610  43.0022 161.6142 0001525 263.0421  97.0258 15.27566720 91389
STARLINK-31448          
1 59611U 24080L   25347.78113936  .00003792  00000+0  14724-3 0  9996
2 59611  42.9971 159.6502 0001298 268.1138  91.9565 15.27581551 91435
STARLINK-31748          
1 59612U 24080M   25347.82724300 -.00001376  00000+0 -40461-4 0  9991
2 59612  43.0002 159.1338 0001360 248.0031 112.0676 15.27598842 92614
STARLINK-31746          
1 59613U 24080N   25348.20848616  .00000997  00000+0  45800-4 0  9990
2 59613  43.0044 164.5947 0002167 277.3349  82.7256 15.27549803 91417
STARLINK-31762          
1 59614U 24080P   25348.18068206  .00001285  00000+0  56228-4 0  9994
2 59614  42.9985 160.9477 0001305 267.2731  92.7971 15.27574029 91451
STARLINK-31761          
1 59615U 24080Q   25348.20938519  .00014952  00000+0  54657-3 0  9999
2 59615  43.0017 161.1143 0001633 266.4969  93.5696 15.27890727 91450
STARLINK-31768          
1 59616U 24080R   25347.91659710  .00025047  00000+0  91958-3 0  9992
2 59616  42.9988 162.4059 0000541 196.1521 163.9313 15.27474051 91418
STARLINK-31769          
1 59617U 24080S   25348.19610347  .00002599  00000+0  10398-3 0  9993
2 59617  43.0056 161.0656 0001190 266.3517  93.7198 15.27568883 91453
STARLINK-31784          
1 59618U 24080T   25348.19433911  .00005851  00000+0  22208-3 0  9991
2 59618  42.9983 164.5085 0000472 241.8539 118.2265 15.27563289 91418
STARLINK-31777          
1 59619U 24080U   25348.19818487  .00001951  00000+0  80421-4 0  9996
2 59619  43.0006 164.5364 0001645 270.6095  89.4568 15.27577463 91411
STARLINK-31771          
1 59620U 24080V   25348.33336806  .00566251  14216-3  12191-2 0  9998
2 59620  42.9763 134.8388 0024654 323.8541  30.8421 15.97056753  5907
STARLINK-31758          
1 59621U 24080W   25347.81569178 -.00003847  00000+0 -13027-3 0  9992
2 59621  43.0019 159.0451 0001538 263.5456  96.5220 15.27593330 91445
STARLINK-31774          
1 59622U 24080X   25348.17989196  .00000262  00000+0  19034-4 0  9990
2 59622  42.9987 157.4812 0000840 270.3568  89.7187 15.27565925 91496
STARLINK-31763          
1 59623U 24080Y   25347.80764335  .00005790  00000+0  21986-3 0  9995
2 59623  43.0030 163.3064 0001034 249.5910 110.4831 15.27562809 91393
STARLINK-31749          
1 59631U 24082A   25348.14997564 -.00002280  00000+0 -73289-4 0  9993
2 59631  42.9978 262.5634 0000815 346.5940  13.4890 15.27613439 91936
